start=new Date('2022-11-05T00:00:00.000Z').valueOf();
sats=[{"TIME_SYSTEM":"UTC","CLASSIFICATION_TYPE":"U","ELEMENT_SET_NO":"999","TLE_LINE2":"2 48357  53.0556  83.9003 0001325  98.6487 261.4652 15.06397440 82969","MEAN_MOTION_DOT":"0.00001818","OBJECT_TYPE":"PAYLOAD","DECAY_DATE":null,"MEAN_ANOMALY":"261.4652","ARG_OF_PERICENTER":"98.6487","NORAD_CAT_ID":"48357","MEAN_MOTION":"15.06397440","EPHEMERIS_TYPE":"0","PERIAPSIS":"546.304","LAUNCH_DATE":"2021-05-04","OBJECT_NAME":"STARLINK-2636","APOAPSIS":"548.139","SITE":"AFETR","BSTAR":"0.00014092000000","PERIOD":"95.592","ECCENTRICITY":"0.00013250","REF_FRAME":"TEME","GP_ID":"216904137","INCLINATION":"53.0556","RCS_SIZE":"LARGE","FILE":"3644787","OBJECT_ID":"2021-038E","TLE_LINE1":"1 48357U 21038E   22308.47536761  .00001818  00000-0  14092-3 0  9992","REV_AT_EPOCH":"8296","MEAN_MOTION_DDOT":"0.0000000000000","SEMIMAJOR_AXIS":"6925.356","EPOCH":"2022-11-04T11:24:31.761504","MEAN_ELEMENT_THEORY":"SGP4","COUNTRY_CODE":"US","CENTER_NAME":"EARTH","RA_OF_ASC_NODE":"83.9003"},{"RA_OF_ASC_NODE":"83.2978","CENTER_NAME":"EARTH","COUNTRY_CODE":"US","MEAN_ELEMENT_THEORY":"SGP4","EPOCH":"2022-11-04T14:26:20.577984","MEAN_MOTION_DDOT":"0.0000000000000","REV_AT_EPOCH":"8297","SEMIMAJOR_AXIS":"6925.359","OBJECT_ID":"2021-038F","TLE_LINE1":"1 48358U 21038F   22308.60162706  .00002747  00000-0  20323-3 0  9998","GP_ID":"216935643","FILE":"3645105","RCS_SIZE":"LARGE","INCLINATION":"53.0558","OBJECT_NAME":"STARLINK-2624","LAUNCH_DATE":"2021-05-04","ECCENTRICITY":"0.00010750","REF_FRAME":"TEME","PERIOD":"95.592","APOAPSIS":"547.968","SITE":"AFETR","BSTAR":"0.00020323000000","EPHEMERIS_TYPE":"0","PERIAPSIS":"546.479","MEAN_ANOMALY":"251.4687","DECAY_DATE":null,"NORAD_CAT_ID":"48358","MEAN_MOTION":"15.06396686","ARG_OF_PERICENTER":"108.6418","MEAN_MOTION_DOT":"0.00002747","TLE_LINE2":"2 48358  53.0558  83.2978 0001075 108.6418 251.4687 15.06396686 82973","ELEMENT_SET_NO":"999","CLASSIFICATION_TYPE":"U","TIME_SYSTEM":"UTC","OBJECT_TYPE":"PAYLOAD"},{"GP_ID":"216936383","INCLINATION":"53.0559","RCS_SIZE":"LARGE","FILE":"3645105","OBJECT_ID":"2021-038G","TLE_LINE1":"1 48359U 21038G   22308.79698247 -.00000944  00000-0 -44512-4 0  9999","REV_AT_EPOCH":"8300","MEAN_MOTION_DDOT":"0.0000000000000","SEMIMAJOR_AXIS":"6925.329","EPOCH":"2022-11-04T19:07:39.285408","COUNTRY_CODE":"US","MEAN_ELEMENT_THEORY":"SGP4","CENTER_NAME":"EARTH","RA_OF_ASC_NODE":"82.4260","TIME_SYSTEM":"UTC","CLASSIFICATION_TYPE":"U","ELEMENT_SET_NO":"999","TLE_LINE2":"2 48359  53.0559  82.4260 0001248  92.7325 267.3806 15.06406416 83009","MEAN_MOTION_DOT":"-0.00000944","OBJECT_TYPE":"PAYLOAD","DECAY_DATE":null,"MEAN_ANOMALY":"267.3806","ARG_OF_PERICENTER":"92.7325","NORAD_CAT_ID":"48359","MEAN_MOTION":"15.06406416","EPHEMERIS_TYPE":"0","PERIAPSIS":"546.330","LAUNCH_DATE":"2021-05-04","OBJECT_NAME":"STARLINK-2628","SITE":"AFETR","BSTAR":"-0.00004451200000","APOAPSIS":"548.058","PERIOD":"95.592","ECCENTRICITY":"0.00012480","REF_FRAME":"TEME"},{"NORAD_CAT_ID":"48360","MEAN_MOTION":"15.06407048","ARG_OF_PERICENTER":"113.0950","MEAN_ANOMALY":"247.0207","DECAY_DATE":null,"OBJECT_TYPE":"PAYLOAD","MEAN_MOTION_DOT":"0.00002874","TLE_LINE2":"2 48360  53.0541  82.4456 0001597 113.0950 247.0207 15.06407048 83009","ELEMENT_SET_NO":"999","CLASSIFICATION_TYPE":"U","TIME_SYSTEM":"UTC","ECCENTRICITY":"0.00015970","REF_FRAME":"TEME","PERIOD":"95.592","SITE":"AFETR","APOAPSIS":"548.298","BSTAR":"0.00021172000000","OBJECT_NAME":"STARLINK-2622","LAUNCH_DATE":"2021-05-04","PERIAPSIS":"546.086","EPHEMERIS_TYPE":"0","TLE_LINE1":"1 48360U 21038H   22308.79329611  .00002874  00000-0  21172-3 0  9995","OBJECT_ID":"2021-038H","FILE":"3645105","RCS_SIZE":"LARGE","INCLINATION":"53.0541","GP_ID":"216935142","CENTER_NAME":"EARTH","RA_OF_ASC_NODE":"82.4456","COUNTRY_CODE":"US","MEAN_ELEMENT_THEORY":"SGP4","EPOCH":"2022-11-04T19:02:20.783904","SEMIMAJOR_AXIS":"6925.327","MEAN_MOTION_DDOT":"0.0000000000000","REV_AT_EPOCH":"8300"},{"RA_OF_ASC_NODE":"83.0597","CENTER_NAME":"EARTH","EPOCH":"2022-11-04T15:45:57.074976","MEAN_ELEMENT_THEORY":"SGP4","COUNTRY_CODE":"US","SEMIMAJOR_AXIS":"6925.336","REV_AT_EPOCH":"8298","MEAN_MOTION_DDOT":"0.0000000000000","TLE_LINE1":"1 48361U 21038J   22308.65691059  .00002056  00000-0  15686-3 0  9994","OBJECT_ID":"2021-038J","FILE":"3645105","RCS_SIZE":"LARGE","INCLINATION":"53.0564","GP_ID":"216934892","PERIOD":"95.592","ECCENTRICITY":"0.00016520","REF_FRAME":"TEME","BSTAR":"0.00015686000000","SITE":"AFETR","APOAPSIS":"548.345","OBJECT_NAME":"STARLINK-2591","LAUNCH_DATE":"2021-05-04","PERIAPSIS":"546.056","EPHEMERIS_TYPE":"0","MEAN_MOTION":"15.06404242","NORAD_CAT_ID":"48361","ARG_OF_PERICENTER":"116.0572","MEAN_ANOMALY":"244.0587","DECAY_DATE":null,"OBJECT_TYPE":"PAYLOAD","MEAN_MOTION_DOT":"0.00002056","CLASSIFICATION_TYPE":"U","TIME_SYSTEM":"UTC","ELEMENT_SET_NO":"999","TLE_LINE2":"2 48361  53.0564  83.0597 0001652 116.0572 244.0587 15.06404242 82980"},{"PERIAPSIS":"546.093","EPHEMERIS_TYPE":"0","ECCENTRICITY":"0.00016120","REF_FRAME":"TEME","PERIOD":"95.592","BSTAR":"0.00012712000000","SITE":"AFETR","APOAPSIS":"548.326","OBJECT_NAME":"STARLINK-2578","LAUNCH_DATE":"2021-05-04","OBJECT_TYPE":"PAYLOAD","MEAN_MOTION_DOT":"0.00001612","ELEMENT_SET_NO":"999","TLE_LINE2":"2 48362  53.0534  83.8662 0001612 131.8060 228.3067 15.06401313 82964","CLASSIFICATION_TYPE":"U","TIME_SYSTEM":"UTC","NORAD_CAT_ID":"48362","MEAN_MOTION":"15.06401313","ARG_OF_PERICENTER":"131.8060","MEAN_ANOMALY":"228.3067","DECAY_DATE":null,"SEMIMAJOR_AXIS":"6925.345","MEAN_MOTION_DDOT":"0.0000000000000","REV_AT_EPOCH":"8296","CENTER_NAME":"EARTH","RA_OF_ASC_NODE":"83.8662","COUNTRY_CODE":"US","MEAN_ELEMENT_THEORY":"SGP4","EPOCH":"2022-11-04T11:47:07.374048","RCS_SIZE":"LARGE","FILE":"3644787","INCLINATION":"53.0534","GP_ID":"216902379","TLE_LINE1":"1 48362U 21038K   22308.49105757  .00001612  00000-0  12712-3 0  9996","OBJECT_ID":"2021-038K"},{"TLE_LINE2":"2 48363  53.0556  77.2701 0001268 109.9659 250.1466 15.06400254 83080","ELEMENT_SET_NO":"999","TIME_SYSTEM":"UTC","CLASSIFICATION_TYPE":"U","MEAN_MOTION_DOT":"0.00001715","OBJECT_TYPE":"PAYLOAD","DECAY_DATE":null,"MEAN_ANOMALY":"250.1466","ARG_OF_PERICENTER":"109.9659","NORAD_CAT_ID":"48363","MEAN_MOTION":"15.06400254","EPHEMERIS_TYPE":"0","PERIAPSIS":"546.335","LAUNCH_DATE":"2021-05-04","OBJECT_NAME":"STARLINK-2626","BSTAR":"0.00013400000000","SITE":"AFETR","APOAPSIS":"548.091","ECCENTRICITY":"0.00012680","REF_FRAME":"TEME","PERIOD":"95.592","GP_ID":"216935883","INCLINATION":"53.0556","RCS_SIZE":"LARGE","FILE":"3645105","OBJECT_ID":"2021-038L","TLE_LINE1":"1 48363U 21038L   22308.83245828  .00001715  00000-0  13400-3 0  9998","MEAN_MOTION_DDOT":"0.0000000000000","REV_AT_EPOCH":"8308","SEMIMAJOR_AXIS":"6925.348","COUNTRY_CODE":"US","MEAN_ELEMENT_THEORY":"SGP4","EPOCH":"2022-11-04T19:58:44.395392","CENTER_NAME":"EARTH","RA_OF_ASC_NODE":"77.2701"},{"ARG_OF_PERICENTER":"96.6091","NORAD_CAT_ID":"48364","MEAN_MOTION":"15.06395804","DECAY_DATE":null,"MEAN_ANOMALY":"263.5047","OBJECT_TYPE":"PAYLOAD","CLASSIFICATION_TYPE":"U","TIME_SYSTEM":"UTC","TLE_LINE2":"2 48364  53.0563  77.6974 0001306  96.6091 263.5047 15.06395804 83076","ELEMENT_SET_NO":"999","MEAN_MOTION_DOT":"0.00001011","BSTAR":"0.00008673400000","SITE":"AFETR","APOAPSIS":"548.131","PERIOD":"95.592","ECCENTRICITY":"0.00013060","REF_FRAME":"TEME","LAUNCH_DATE":"2021-05-04","OBJECT_NAME":"STARLINK-2611","PERIAPSIS":"546.322","EPHEMERIS_TYPE":"0","TLE_LINE1":"1 48364U 21038M   22308.78088329  .00001011  00000-0  86734-4 0  9994","OBJECT_ID":"2021-038M","INCLINATION":"53.0563","RCS_SIZE":"LARGE","FILE":"3645105","GP_ID":"216934642","EPOCH":"2022-11-04T18:44:28.316256","MEAN_ELEMENT_THEORY":"SGP4","COUNTRY_CODE":"US","RA_OF_ASC_NODE":"77.6974","CENTER_NAME":"EARTH","SEMIMAJOR_AXIS":"6925.361","REV_AT_EPOCH":"8307","MEAN_MOTION_DDOT":"0.0000000000000"},{"MEAN_MOTION_DOT":"0.00002672","ELEMENT_SET_NO":"999","TLE_LINE2":"2 48365  53.0528  77.6722 0001384  74.3024 285.8118 15.06397193 83073","CLASSIFICATION_TYPE":"U","TIME_SYSTEM":"UTC","OBJECT_TYPE":"PAYLOAD","MEAN_ANOMALY":"285.8118","DECAY_DATE":null,"NORAD_CAT_ID":"48365","MEAN_MOTION":"15.06397193","ARG_OF_PERICENTER":"74.3024","EPHEMERIS_TYPE":"0","PERIAPSIS":"546.264","OBJECT_NAME":"STARLINK-2608","LAUNCH_DATE":"2021-05-04","ECCENTRICITY":"0.00013840","REF_FRAME":"TEME","PERIOD":"95.592","BSTAR":"0.00019825000000","SITE":"AFETR","APOAPSIS":"548.181","GP_ID":"216935393","FILE":"3645105","RCS_SIZE":"LARGE","INCLINATION":"53.0528","OBJECT_ID":"2021-038N","TLE_LINE1":"1 48365U 21038N   22308.74031008  .00002672  00000-0  19825-3 0  9993","MEAN_MOTION_DDOT":"0.0000000000000","REV_AT_EPOCH":"8307","SEMIMAJOR_AXIS":"6925.357","CENTER_NAME":"EARTH","RA_OF_ASC_NODE":"77.6722","COUNTRY_CODE":"US","MEAN_ELEMENT_THEORY":"SGP4","EPOCH":"2022-11-04T17:46:02.790912"},{"EPHEMERIS_TYPE":"0","PERIAPSIS":"546.243","OBJECT_NAME":"STARLINK-2631","LAUNCH_DATE":"2021-05-04","ECCENTRICITY":"0.00013310","REF_FRAME":"TEME","PERIOD":"95.591","SITE":"AFETR","BSTAR":"0.00109870000000","APOAPSIS":"548.087","MEAN_MOTION_DOT":"0.00016128","TLE_LINE2":"2 48366  53.0538  72.1471 0001331 104.8752 255.2384 15.06415765 83156","ELEMENT_SET_NO":"999","CLASSIFICATION_TYPE":"U","TIME_SYSTEM":"UTC","OBJECT_TYPE":"PAYLOAD","MEAN_ANOMALY":"255.2384","DECAY_DATE":null,"NORAD_CAT_ID":"48366","MEAN_MOTION":"15.06415765","ARG_OF_PERICENTER":"104.8752","MEAN_MOTION_DDOT":"0.0000000000000","REV_AT_EPOCH":"8315","SEMIMAJOR_AXIS":"6925.300","CENTER_NAME":"EARTH","RA_OF_ASC_NODE":"72.1471","MEAN_ELEMENT_THEORY":"SGP4","COUNTRY_CODE":"US","EPOCH":"2022-11-04T20:39:12.877344","GP_ID":"216935644","RCS_SIZE":"LARGE","FILE":"3645105","INCLINATION":"53.0538","OBJECT_ID":"2021-038P","TLE_LINE1":"1 48366U 21038P   22308.86056571  .00016128  00000-0  10987-2 0  9999"}];
